OBJECT_NAME,OBJECT_ID,EPOCH,MEAN_MOTION,ECCENTRICITY,INCLINATION,RA_OF_ASC_NODE,ARG_OF_PERICENTER,MEAN_ANOMALY,EPHEMERIS_TYPE,CLASSIFICATION_TYPE,NORAD_CAT_ID,ELEMENT_SET_NO,REV_AT_EPOCH,BSTAR,MEAN_MOTION_DOT,MEAN_MOTION_DDOT
MINXSS-2,2018-099A,2026-07-11T18:55:58.552032,15.48644977,.00083797,97.4535,269.8221,170.8889,189.2515,0,U,43758,999,41793,.45525209E-3,.24308E-3,0
SIRION PATHFINDER-2,2018-099B,2026-07-11T16:35:34.223712,15.14760800,.00081287,97.4245,241.1675,204.5244,155.5602,0,U,43759,999,41633,.16707902E-3,.3035E-4,0
AISTECHSAT 2,2018-099L,2026-07-11T17:10:48.288288,15.15692770,.00042649,97.4284,240.2143,192.0026,168.1106,0,U,43768,999,41599,.15024793E-3,.2795E-4,0
FOX-1CLIFF (AO-95),2018-099N,2026-07-11T03:03:59.509440,15.27218021,.00070107,97.4378,252.2917,257.0089,103.0367,0,U,43770,999,41687,.26022065E-3,.6872E-4,0
RANGE-A,2018-099R,2026-07-09T15:46:08.743296,15.13579951,.0008493,97.3959,232.5795,267.8830,92.1429,0,U,43773,999,41589,.18729816E-3,.3299E-4,0
SNUSAT-2,2018-099AA,2026-07-11T03:11:10.030272,15.22201002,.00097645,97.4052,245.1517,202.2456,157.8358,0,U,43782,999,41667,.20463128E-3,.4635E-4,0
SNUGLITE,2018-099AC,2026-07-11T15:28:31.516608,15.27707403,.00032496,97.3863,246.6897,168.6794,191.4519,0,U,43784,999,41705,.25068035E-3,.6714E-4,0
ITASAT,2018-099AE,2026-07-11T17:18:45.961056,15.19355375,.0010794,97.4021,243.7457,264.3546,95.6458,0,U,43786,999,41663,.17042883E-3,.3539E-4,0
EAGLET-I,2018-099AJ,2026-07-11T15:43:00.199488,15.13118239,.00094688,97.4223,241.6759,258.4389,101.5780,0,U,43790,999,41603,.1164649E-3,.2E-4,0
ESEO,2018-099AL,2026-07-11T15:49:17.396832,15.04312588,.00107901,97.3952,228.9985,247.5261,112.4823,0,U,43792,999,41548,.97094165E-4,.1296E-4,0
THEA,2018-099AQ,2026-07-11T18:30:45.140256,15.35857054,.0007689,97.4439,262.7149,185.7888,174.3268,0,U,43796,999,41646,.30648871E-3,.10624E-3,0
ASTROCAST 0.1,2018-099AS,2026-07-11T18:53:39.405696,15.51278683,.00058759,97.4385,272.0791,144.9859,215.1780,0,U,43798,999,41824,.39344646E-3,.23019E-3,0
JY1SAT (JO-97),2018-099AX,2026-07-11T16:29:36.040416,15.34443331,.00065178,97.4124,255.6172,168.9842,191.1545,0,U,43803,999,41738,.301087E-3,.9972E-4,0
SUOMI-100,2018-099AY,2026-07-11T16:29:43.566720,15.28978367,.00101971,97.4182,252.9963,184.1974,175.9182,0,U,43804,999,41716,.26127374E-3,.7288E-4,0
CENTAURI-1,2018-099BD,2026-07-11T16:27:59.867712,15.16603436,.00127202,97.4214,243.8810,238.2570,121.7424,0,U,43809,999,41621,.17704853E-3,.3399E-4,0
GLOBAL-2,2018-099BG,2026-07-11T14:44:19.254336,15.08814097,.00076277,97.3549,228.1117,76.9899,283.2181,0,U,43812,999,41559,.91053945E-4,.1373E-4,0
SEAHAWK-1,2018-099BQ,2026-07-11T15:26:00.423744,15.23202069,.00074803,97.3948,244.7594,211.7845,148.2941,0,U,43820,999,41625,.22168066E-3,.5177E-4,0
ISAT,2018-111D,2026-07-11T19:13:16.488192,15.70261010,.00071391,97.5861,130.0063,146.3017,213.8700,0,U,43879,999,41502,.63877923E-3,.78043E-3,0
UWE-4,2018-111E,2026-07-09T06:35:43.813824,15.47549208,.00052707,97.5841,119.7053,218.3666,141.7210,0,U,43880,999,41419,.53767723E-3,.2764E-3,0
D-STAR ONE (SPARROW),2018-111F,2026-07-11T18:55:13.674144,15.83665674,.00067114,97.6096,136.1309,142.9832,217.1901,0,U,43881,999,41525,.77361269E-3,.172546E-2,0
WT 1B,2019-032G,2026-07-11T17:23:40.199712,15.27684575,.00086953,44.9735,286.9553,14.9834,345.1305,0,U,44316,999,39083,.30210243E-3,.8046E-4,0
